OBJECT_NAME,OBJECT_ID,EPOCH,MEAN_MOTION,ECCENTRICITY,INCLINATION,RA_OF_ASC_NODE,ARG_OF_PERICENTER,MEAN_ANOMALY,EPHEMERIS_TYPE,CLASSIFICATION_TYPE,NORAD_CAT_ID,ELEMENT_SET_NO,REV_AT_EPOCH,BSTAR,MEAN_MOTION_DOT,MEAN_MOTION_DDOT
TOMORROW-S9,2025-248S,2026-07-19T07:49:18.972192,15.20758741,.00048332,45.4062,309.4123,246.8802,113.1576,0,U,66309,999,3940,.87095564E-4,.1669E-4,0
CMS-03 (GSAT-7R),2025-249B,2026-07-19T13:31:47.231040,1.00269959,.00024764,0.0163,59.5161,57.8364,96.9425,0,U,66311,999,267,0,0,0
YAOGAN-46,2025-250A,2026-07-17T06:16:21.490176,5.31209465,.00048075,20.0795,319.2054,175.8938,184.1362,0,U,66313,999,1369,0,-.35E-6,0
SENTINEL-1D,2025-251A,2026-07-19T11:08:25.086336,14.59197252,.0001383,98.1830,207.3698,88.2898,271.8460,0,U,66315,999,3743,-.192205E-6,-.47E-6,0
QPS-SAR-14 (YACHIHOKO-I),2025-252A,2026-07-19T08:40:05.472480,14.99765995,.00040477,42.0048,314.9196,106.8238,253.3031,0,U,66316,999,3834,.17064931E-3,.1962E-4,0
STARLINK-35442,2025-253A,2026-07-19T00:06:52.055424,15.27582554,.00011569,42.9985,191.2397,273.9116,86.1604,0,U,66319,999,4032,.20945034E-3,.5506E-4,0
STARLINK-34616,2025-253B,2026-07-19T00:23:18.423744,15.27583982,.00009687,43.0003,190.4589,271.7439,88.3302,0,U,66320,999,4041,.22507801E-3,.5937E-4,0
STARLINK-34615,2025-253C,2026-07-18T07:44:35.205216,15.27592398,.00018673,43.0024,194.6945,267.7612,92.3026,0,U,66321,999,4022,.37112957E-3,.9968E-4,0
STARLINK-35292,2025-253D,2026-07-19T08:34:26.476032,15.27594906,.00019141,43.0033,188.7285,303.4683,56.5985,0,U,66322,999,4038,.18642933E-3,.4874E-4,0
STARLINK-35309,2025-253E,2026-07-19T07:59:29.892768,15.27582012,.00010032,42.9993,189.3936,271.7095,88.3642,0,U,66323,999,4037,.20336807E-3,.5339E-4,0
STARLINK-35506,2025-253F,2026-07-19T08:19:38.379072,15.27581917,.00012185,43.0014,188.6410,268.4510,91.6202,0,U,66324,999,4038,.15114608E-3,.39E-4,0
STARLINK-35504,2025-253G,2026-07-19T09:37:21.514944,15.27588636,.00015228,42.9998,189.0513,284.7617,75.3066,0,U,66325,999,4038,.38209895E-3,.1027E-3,0
STARLINK-35479,2025-253H,2026-07-19T05:53:53.170656,15.27587454,.00016608,43.0004,189.6001,277.3577,82.7086,0,U,66326,999,4036,.24998005E-3,.6625E-4,0
STARLINK-35507,2025-253J,2026-07-19T08:30:46.358208,15.27564740,.00016797,43.0024,188.7017,293.2892,66.7783,0,U,66327,999,4038,.42043097E-3,.1132E-3,0
STARLINK-35460,2025-253K,2026-07-19T09:26:15.408096,15.27583973,.00005771,42.9983,188.9899,278.1227,81.9559,0,U,66328,999,4038,.29835862E-3,.7958E-4,0
STARLINK-35505,2025-253L,2026-07-19T08:56:38.726880,15.27584244,.00020039,43.0008,188.8349,292.0828,67.9811,0,U,66329,999,4038,.23056976E-3,.6089E-4,0
STARLINK-35512,2025-253M,2026-07-19T01:26:13.377120,15.27582566,.00015572,42.9995,190.7896,269.7834,90.2840,0,U,66330,999,4033,.20873767E-3,.5487E-4,0
STARLINK-35257,2025-253N,2026-07-19T08:25:11.257536,15.27571075,.00008049,43.0009,188.6676,288.1420,71.9344,0,U,66331,999,4038,.11299428E-4,.49E-6,0
STARLINK-35322,2025-253P,2026-07-18T23:15:03.304800,15.27589877,.00021827,43.0027,190.9699,283.5784,76.4825,0,U,66332,999,4032,.3659783E-3,.9825E-4,0
STARLINK-35400,2025-253Q,2026-07-19T06:36:26.564544,15.27589846,.00009325,42.9987,189.8211,274.3413,85.7332,0,U,66333,999,4036,.23720252E-3,.6273E-4,0
STARLINK-35407,2025-253R,2026-07-19T08:28:53.647680,15.27586091,.00017868,43.0044,188.6935,275.5834,84.4813,0,U,66334,999,4038,.39542926E-3,.10637E-3,0
STARLINK-35417,2025-253S,2026-07-19T05:52:02.091360,15.27587104,.0001463,42.9986,189.5932,273.7018,86.3666,0,U,66335,999,4036,.24093677E-3,.6375E-4,0
STARLINK-35404,2025-253T,2026-07-19T08:47:23.672544,15.27589204,.00015989,43.0014,188.7842,275.3351,84.7318,0,U,66336,999,4038,.25233723E-3,.669E-4,0
STARLINK-34783,2025-253U,2026-07-19T06:34:35.573376,15.27585221,.00011952,42.9990,189.8164,278.5474,81.5242,0,U,66337,999,4036,.18874909E-3,.4936E-4,0
STARLINK-35477,2025-253V,2026-07-18T06:04:53.107680,15.27580651,.00016891,42.9991,195.0572,288.0711,71.9956,0,U,66338,999,4021,.16884326E-3,.4387E-4,0
STARLINK-35443,2025-253W,2026-07-19T08:54:47.620800,15.27585528,.00018075,43.0006,188.8219,276.1613,83.9033,0,U,66339,999,4038,.21548129E-3,.5673E-4,0
STARLINK-35218,2025-253X,2026-07-19T09:28:06.569472,15.27576751,.00011706,42.9993,188.9940,271.0676,89.0041,0,U,66340,999,4038,.15320211E-3,.3956E-4,0
STARLINK-35522,2025-253Y,2026-07-19T09:13:19.697664,15.27584823,.0001552,43.0005,188.9206,266.6219,93.4455,0,U,66341,999,4038,.29420793E-3,.7844E-4,0
STARLINK-35535,2025-253Z,2026-07-19T09:05:54.208896,15.27590654,.00013949,43.0005,188.8810,271.2183,88.8509,0,U,66342,999,4038,.22060819E-3,.5815E-4,0
STARLINK-35467,2025-253AA,2026-07-19T06:14:14.337024,15.27582613,.00012003,42.9994,189.7075,270.7495,89.3220,0,U,66343,999,4036,.1827376E-3,.477E-4,0
STARLINK-35511,2025-253AB,2026-07-19T06:41:46.876992,15.27582978,.00012275,43.0003,188.9838,283.4702,76.6013,0,U,66344,999,4037,.17888343E-3,.4664E-4,0
STARLINK-35440,2025-253AC,2026-07-19T07:33:35.509248,15.27583507,.00014345,43.0002,189.2571,271.8705,88.1982,0,U,66345,999,4037,.17838021E-3,.465E-4,0
STARLINK-35482,2025-253AD,2026-07-18T23:11:21.311232,15.27584251,.00019064,43.0015,190.9432,284.2761,75.7879,0,U,66346,999,4032,.27099768E-3,.7203E-4,0
STARLINK-35438,2025-253AE,2026-07-19T00:32:32.701344,15.27617321,.00010718,43.0002,190.4979,246.2823,113.7917,0,U,66347,999,4033,.55391615E-3,.15029E-3,0
STARLINK-35849,2025-254A,2026-07-19T09:24:52.964352,15.34402300,.00011947,53.1632,340.4506,106.3382,253.7752,0,U,66348,999,4030,.43267223E-3,.14271E-3,0
STARLINK-35848,2025-254B,2026-07-19T08:53:30.442272,15.31709719,.00013474,53.1601,340.3175,61.0764,299.0373,0,U,66349,999,3914,.34251682E-3,.10281E-3,0
STARLINK-35829,2025-254C,2026-07-19T10:07:16.887072,15.31740391,.00006508,53.1603,339.9240,105.0277,255.0797,0,U,66350,999,3915,.68803181E-3,.21073E-3,0
STARLINK-35828,2025-254D,2026-07-19T15:42:48.770496,15.31714299,.00017801,53.1572,338.5301,90.6746,269.4460,0,U,66351,999,3919,.24495759E-3,.7247E-4,0
STARLINK-35850,2025-254E,2026-07-19T14:00:01.999872,15.33585429,.00015657,53.1611,339.4672,83.7378,294.9109,0,U,66352,999,576,-.89776619E-3,-.29816E-3,0
STARLINK-35869,2025-254F,2026-07-19T15:27:56.515104,15.30206725,.00012499,53.1603,339.1706,93.4837,266.6307,0,U,66353,999,3918,.42523639E-3,.12259E-3,0
STARLINK-35895,2025-254G,2026-07-19T15:45:03.546720,15.33560574,.00016036,53.1598,339.2613,92.1465,267.9720,0,U,66354,999,3918,.47724051E-3,.1536E-3,0
STARLINK-35861,2025-254H,2026-07-19T02:21:20.522016,15.34403504,.00003573,53.1619,342.1670,312.2339,47.8634,0,U,66355,999,3909,.29089655E-3,.9466E-4,0
STARLINK-35851,2025-254J,2026-07-19T15:37:02.070624,15.34405118,.00013665,53.1613,339.2160,94.4756,265.6403,0,U,66356,999,3918,.45651169E-3,.15081E-3,0
STARLINK-35817,2025-254K,2026-07-19T09:40:01.991712,15.34386660,.00011144,53.1607,340.5101,74.9397,285.1729,0,U,66357,999,3914,.43718869E-3,.14417E-3,0
STARLINK-35807,2025-254L,2026-07-19T10:00:35.151264,15.31696847,.00010049,53.1614,339.8927,104.7260,255.3852,0,U,66358,999,3915,.35519927E-3,.10672E-3,0
STARLINK-35805,2025-254M,2026-07-19T09:13:31.669248,15.31714390,.00011217,53.1613,339.6874,90.0005,270.1125,0,U,66359,999,4028,.47215615E-3,.14321E-3,0
STARLINK-35823,2025-254N,2026-07-19T14:00:01.999872,15.33578830,.00011513,53.1610,339.4845,93.3191,275.7489,0,U,66360,999,581,-.93081211E-3,-.30888E-3,0
STARLINK-35813,2025-254P,2026-07-19T15:36:05.414688,15.31714664,.00011274,53.1598,338.4994,87.2535,272.8595,0,U,66361,999,3919,.41471591E-3,.12532E-3,0
STARLINK-35822,2025-254Q,2026-07-19T15:49:09.454080,15.34394138,.00013716,53.1619,339.2687,79.9449,280.1709,0,U,66362,999,3918,.38605776E-3,.12687E-3,0
STARLINK-35806,2025-254R,2026-07-19T13:30:05.372352,15.34311373,.00015421,53.1597,340.0853,76.3168,283.8006,0,U,66363,999,3916,.2976323E-2,.101263E-2,0
STARLINK-35797,2025-254S,2026-07-19T14:00:01.999872,15.34297357,.00034539,53.1593,339.9658,137.8627,349.2199,0,U,66364,999,582,.53948217E-3,.17837E-3,0
STARLINK-35827,2025-254T,2026-07-19T08:40:03.548352,15.31712201,.00015087,53.1566,340.2524,79.9994,280.1177,0,U,66365,999,3914,.3263778E-3,.978E-4,0
STARLINK-35845,2025-254U,2026-07-18T18:41:08.041920,15.31698888,.00013602,53.1598,343.0172,84.1888,275.9268,0,U,66366,999,3905,.43609978E-3,.13191E-3,0
STARLINK-35846,2025-254V,2026-07-19T15:29:28.059360,15.30226914,.00007808,53.1611,339.1753,66.1608,293.9475,0,U,66367,999,3918,.39059639E-3,.11236E-3,0
STARLINK-34861,2025-254W,2026-07-19T09:42:52.265376,15.30202606,.00008121,53.1589,338.3441,57.2385,302.8694,0,U,66368,999,3917,.33003515E-3,.9429E-4,0
STARLINK-35795,2025-254X,2026-07-19T14:00:01.999872,15.33469217,.00014998,53.1595,337.5021,86.8531,186.3830,0,U,66369,999,576,.53033903E-3,.17065E-3,0
STARLINK-35824,2025-254Y,2026-07-19T09:47:25.609920,15.30225268,.00009381,53.1587,338.3665,82.0209,278.0898,0,U,66370,999,3917,.50685646E-3,.14694E-3,0
STARLINK-35804,2025-254Z,2026-07-19T14:00:01.999872,15.33543999,.0001979,53.1601,337.4647,112.7854,178.5646,0,U,66371,999,581,-.37866006E-3,-.12804E-3,0
STARLINK-35821,2025-254AA,2026-07-19T15:49:59.179872,15.30177259,.0000516,53.1608,337.0945,69.1250,290.9806,0,U,66372,999,3921,.5065147E-3,.14662E-3,0
STARLINK-35809,2025-254AB,2026-07-19T15:45:24.465888,15.30197285,.00007737,53.1604,337.0734,82.6874,277.4215,0,U,66373,999,3921,.39138008E-3,.11249E-3,0
STARLINK-35831,2025-254AC,2026-07-19T02:10:36.865344,15.34391408,.00013149,53.1621,337.8099,83.4810,276.6343,0,U,66374,999,3915,.47248376E-3,.15616E-3,0
STARLINK-35826,2025-254AD,2026-07-19T02:07:39.635616,15.30213109,.0000268,53.1620,339.2140,78.0759,282.0272,0,U,66375,999,3913,.62052821E-3,.18072E-3,0
SHIYAN-32 02,2025-255C,2026-07-19T13:28:56.119296,15.41572321,.00115183,52.9912,220.7067,313.0118,46.9920,0,U,66378,999,3895,.13155499E-3,.5214E-4,0
SHIYAN-32 03,2025-255D,2026-07-19T13:29:17.207808,15.41589183,.00093259,52.9933,220.7685,280.6175,79.3778,0,U,66379,999,3897,.10163819E-3,.3933E-4,0
